{
  "type": "FeatureCollection",
  "features": [
    {
      "type": "Feature",
      "properties": {
        "norad_id": 39773,
        "name": "EUTELSAT 3B",
        "group": "eutelsat",
        "lat": -0.07808895119430781,
        "lon": -89.85258466089806,
        "alt_km": 35771.31533127272,
        "timestamp": "2025-12-27T11:23:19.549188+00:00",
        "meta_object_name": "EUTELSAT 3B",
        "meta_object_id": "2014-030A",
        "meta_epoch": "2025-12-27T02:44:37.147776",
        "meta_mean_motion": 1.00270441,
        "meta_eccentricity": 0.0004313,
        "meta_inclination": 0.06,
        "meta_ra_of_asc_node": 353.8386,
        "meta_arg_of_pericenter": 242.3071,
        "meta_mean_anomaly": 263.9517,
        "meta_ephemeris_type": 0,
        "meta_classification_type": "U",
        "meta_norad_cat_id": 39773,
        "meta_element_set_no": 999,
        "meta_rev_at_epoch": 4234,
        "meta_bstar": 0,
        "meta_mean_motion_dot": 4.2e-07,
        "meta_mean_motion_ddot": 0,
        "tle_line1": "1 39773U 14030A   25361.11431884  .00000042  00000+0  00000+0 0  9998",
        "tle_line2": "2 39773   0.0600 353.8386 0004313 242.3071 263.9517  1.00270441 42348"
      },
      "geometry": {
        "type": "Point",
        "coordinates": [
          -89.85258466089806,
          -0.07808895119430781
        ]
      }
    },
    {
      "type": "Feature",
      "properties": {
        "norad_id": 40425,
        "name": "EUTELSAT 115 WEST B",
        "group": "eutelsat",
        "lat": -0.0023942745132961778,
        "lon": 152.13087638819871,
        "alt_km": 35785.616963995206,
        "timestamp": "2025-12-27T11:23:19.549202+00:00",
        "meta_object_name": "EUTELSAT 115 WEST B",
        "meta_object_id": "2015-010B",
        "meta_epoch": "2025-12-26T05:44:38.581152",
        "meta_mean_motion": 1.00273604,
        "meta_eccentricity": 7.8e-06,
        "meta_inclination": 0.0077,
        "meta_ra_of_asc_node": 147.8651,
        "meta_arg_of_pericenter": 258.8043,
        "meta_mean_anomaly": 19.571,
        "meta_ephemeris_type": 0,
        "meta_classification_type": "U",
        "meta_norad_cat_id": 40425,
        "meta_element_set_no": 999,
        "meta_rev_at_epoch": 3965,
        "meta_bstar": 0,
        "meta_mean_motion_dot": -3e-08,
        "meta_mean_motion_ddot": 0,
        "tle_line1": "1 40425U 15010B   25360.23933543 -.00000003  00000+0  00000+0 0  9992",
        "tle_line2": "2 40425   0.0077 147.8651 0000078 258.8043  19.5710  1.00273604 39657"
      },
      "geometry": {
        "type": "Point",
        "coordinates": [
          152.13087638819871,
          -0.0023942745132961778
        ]
      }
    },
    {
      "type": "Feature",
      "properties": {
        "norad_id": 40875,
        "name": "EUTELSAT 8 WEST B",
        "group": "eutelsat",
        "lat": -0.07757811556327504,
        "lon": -100.98924148134377,
        "alt_km": 35769.21890889087,
        "timestamp": "2025-12-27T11:23:19.549215+00:00",
        "meta_object_name": "EUTELSAT 8 WEST B",
        "meta_object_id": "2015-039B",
        "meta_epoch": "2025-12-27T02:41:29.948352",
        "meta_mean_motion": 1.00271427,
        "meta_eccentricity": 0.00042,
        "meta_inclination": 0.0654,
        "meta_ra_of_asc_node": 13.2614,
        "meta_arg_of_pericenter": 263.0943,
        "meta_mean_anomaly": 211.8634,
        "meta_ephemeris_type": 0,
        "meta_classification_type": "U",
        "meta_norad_cat_id": 40875,
        "meta_element_set_no": 999,
        "meta_rev_at_epoch": 3793,
        "meta_bstar": 0,
        "meta_mean_motion_dot": -4.3e-07,
        "meta_mean_motion_ddot": 0,
        "tle_line1": "1 40875U 15039B   25361.11215218 -.00000043  00000+0  00000+0 0  9996",
        "tle_line2": "2 40875   0.0654  13.2614 0004200 263.0943 211.8634  1.00271427 37932"
      },
      "geometry": {
        "type": "Point",
        "coordinates": [
          -100.98924148134377,
          -0.07757811556327504
        ]
      }
    },
    {
      "type": "Feature",
      "properties": {
        "norad_id": 41310,
        "name": "EUTELSAT 9B",
        "group": "eutelsat",
        "lat": -0.03716592381594909,
        "lon": -83.98412887873671,
        "alt_km": 35766.4135703704,
        "timestamp": "2025-12-27T11:23:19.549227+00:00",
        "meta_object_name": "EUTELSAT 9B",
        "meta_object_id": "2016-005A",
        "meta_epoch": "2025-12-26T23:20:53.280960",
        "meta_mean_motion": 1.00270022,
        "meta_eccentricity": 0.0004755,
        "meta_inclination": 0.0291,
        "meta_ra_of_asc_node": 50.6098,
        "meta_arg_of_pericenter": 225.6856,
        "meta_mean_anomaly": 178.6271,
        "meta_ephemeris_type": 0,
        "meta_classification_type": "U",
        "meta_norad_cat_id": 41310,
        "meta_element_set_no": 999,
        "meta_rev_at_epoch": 3639,
        "meta_bstar": 0,
        "meta_mean_motion_dot": 8.4e-07,
        "meta_mean_motion_ddot": 0,
        "tle_line1": "1 41310U 16005A   25360.97283890  .00000084  00000+0  00000+0 0  9993",
        "tle_line2": "2 41310   0.0291  50.6098 0004755 225.6856 178.6271  1.00270022 36393"
      },
      "geometry": {
        "type": "Point",
        "coordinates": [
          -83.98412887873671,
          -0.03716592381594909
        ]
      }
    },
    {
      "type": "Feature",
      "properties": {
        "norad_id": 41382,
        "name": "EUTELSAT 65 WEST A",
        "group": "eutelsat",
        "lat": -0.030801331337112187,
        "lon": -158.18118331087368,
        "alt_km": 35784.177412578225,
        "timestamp": "2025-12-27T11:23:19.549239+00:00",
        "meta_object_name": "EUTELSAT 65 WEST A",
        "meta_object_id": "2016-014A",
        "meta_epoch": "2025-12-27T04:03:58.415904",
        "meta_mean_motion": 1.00270796,
        "meta_eccentricity": 0.0002416,
        "meta_inclination": 0.0469,
        "meta_ra_of_asc_node": 349.5635,
        "meta_arg_of_pericenter": 289.757,
        "meta_mean_anomaly": 172.3953,
        "meta_ephemeris_type": 0,
        "meta_classification_type": "U",
        "meta_norad_cat_id": 41382,
        "meta_element_set_no": 999,
        "meta_rev_at_epoch": 3581,
        "meta_bstar": 0,
        "meta_mean_motion_dot": -2.54e-06,
        "meta_mean_motion_ddot": 0,
        "tle_line1": "1 41382U 16014A   25361.16942611 -.00000254  00000+0  00000+0 0  9997",
        "tle_line2": "2 41382   0.0469 349.5635 0002416 289.7570 172.3953  1.00270796 35814"
      },
      "geometry": {
        "type": "Point",
        "coordinates": [
          -158.18118331087368,
          -0.030801331337112187
        ]
      }
    },
    {
      "type": "Feature",
      "properties": {
        "norad_id": 41589,
        "name": "EUTELSAT 117 WEST B",
        "group": "eutelsat",
        "lat": -0.003412234783464023,
        "lon": 150.02478381055036,
        "alt_km": 35785.8917263168,
        "timestamp": "2025-12-27T11:23:19.549250+00:00",
        "meta_object_name": "EUTELSAT 117 WEST B",
        "meta_object_id": "2016-038B",
        "meta_epoch": "2025-12-27T02:10:25.425120",
        "meta_mean_motion": 1.00273209,
        "meta_eccentricity": 5.4e-06,
        "meta_inclination": 0.0089,
        "meta_ra_of_asc_node": 156.8895,
        "meta_arg_of_pericenter": 185.3917,
        "meta_mean_anomaly": 29.1448,
        "meta_ephemeris_type": 0,
        "meta_classification_type": "U",
        "meta_norad_cat_id": 41589,
        "meta_element_set_no": 999,
        "meta_rev_at_epoch": 3493,
        "meta_bstar": 0,
        "meta_mean_motion_dot": 1.1e-07,
        "meta_mean_motion_ddot": 0,
        "tle_line1": "1 41589U 16038B   25361.09057205  .00000011  00000+0  00000+0 0  9990",
        "tle_line2": "2 41589   0.0089 156.8895 0000054 185.3917  29.1448  1.00273209 34932"
      },
      "geometry": {
        "type": "Point",
        "coordinates": [
          150.02478381055036,
          -0.003412234783464023
        ]
      }
    },
    {
      "type": "Feature",
      "properties": {
        "norad_id": 42741,
        "name": "EUTELSAT 172B",
        "group": "eutelsat",
        "lat": -0.007524598462158509,
        "lon": 79.02176480018967,
        "alt_km": 35786.70272314921,
        "timestamp": "2025-12-27T11:23:19.549262+00:00",
        "meta_object_name": "EUTELSAT 172B",
        "meta_object_id": "2017-029B",
        "meta_epoch": "2025-12-27T02:56:38.611104",
        "meta_mean_motion": 1.00270227,
        "meta_eccentricity": 1.14e-05,
        "meta_inclination": 0.0382,
        "meta_ra_of_asc_node": 161.2044,
        "meta_arg_of_pericenter": 31.915,
        "meta_mean_anomaly": 118.8954,
        "meta_ephemeris_type": 0,
        "meta_classification_type": "U",
        "meta_norad_cat_id": 42741,
        "meta_element_set_no": 999,
        "meta_rev_at_epoch": 3200,
        "meta_bstar": 0,
        "meta_mean_motion_dot": 1.6e-07,
        "meta_mean_motion_ddot": 0,
        "tle_line1": "1 42741U 17029B   25361.12266911  .00000016  00000+0  00000+0 0  9997",
        "tle_line2": "2 42741   0.0382 161.2044 0000114  31.9150 118.8954  1.00270227 32008"
      },
      "geometry": {
        "type": "Point",
        "coordinates": [
          79.02176480018967,
          -0.007524598462158509
        ]
      }
    }
  ]
}